IRIDIUM 921             
1 24873U 97034E   24180.56260047  .00051078  00000+0  12662-2 0  9991
2 24873  86.3803 282.4790 0004736 181.5538 178.5702 15.40175671476933
IRIDIUM 26              
1 24903U 97043A   24180.75343984  .00000776  00000+0  25844-3 0  9994
2 24903  86.3954 258.9011 0002249 100.1278 260.0173 14.36416149406465
IRIDIUM 22              
1 24907U 97043E   24180.74833926  .00000752  00000+0  25587-3 0  9995
2 24907  86.3957 262.1501 0002210  93.8077 266.3372 14.35304131406057
DUMMY MASS 1            
1 24925U 97048A   24180.57149132  .00000852  00000+0  93723-4 0  9999
2 24925  86.3346 298.7276 0005548 338.7146  21.3846 14.86260586452594
DUMMY MASS 2            
1 24926U 97048B   24180.60997319  .00000863  00000+0  95568-4 0  9993
2 24926  86.3347 300.2554 0006756 348.7183  11.3888 14.86018594452380
IRIDIUM 29              
1 24944U 97051A   24180.60822186  .00000802  00000+0  27075-3 0  9996
2 24944  86.3955 292.1150 0002062  88.2175 271.9258 14.35752632402527
IRIDIUM 33              
1 24946U 97051C   24180.85499397  .00000633  00000+0  21815-3 0  9997
2 24946  86.3870 291.2621 0009238 140.4082 219.7790 14.34401301402094
IRIDIUM 28              
1 24948U 97051E   24180.81349548  .00000833  00000+0  27619-3 0  9997
2 24948  86.3960 289.7453 0002350 104.0606 256.0853 14.36707113403162
