<?xml version="1.0" encoding="UTF-8"?>
<ndm xmlns:xsi="http://www.w3.org/2001/XMLSchema-instance" xsi:noNamespaceSchemaLocation="https://sanaregistry.org/r/ndmxml_unqualified/ndmxml-2.0.0-master-2.0.xsd">
<omm id="CCSDS_OMM_VERS" version="2.0">
<header><CREATION_DATE/><ORIGINATOR/></header><body><segment><metadata><OBJECT_NAME>IRIDIUM 921</OBJECT_NAME><OBJECT_ID>1997-034E</OBJECT_ID><CENTER_NAME>EARTH</CENTER_NAME><REF_FRAME>TEME</REF_FRAME><TIME_SYSTEM>UTC</TIME_SYSTEM><MEAN_ELEMENT_THEORY>SGP4</MEAN_ELEMENT_THEORY></metadata><data><meanElements><EPOCH>2024-06-28T13:30:08.680608</EPOCH><MEAN_MOTION>15.40175671</MEAN_MOTION><ECCENTRICITY>.0004736</ECCENTRICITY><INCLINATION>86.3803</INCLINATION><RA_OF_ASC_NODE>282.4790</RA_OF_ASC_NODE><ARG_OF_PERICENTER>181.5538</ARG_OF_PERICENTER><MEAN_ANOMALY>178.5702</MEAN_ANOMALY></meanElements><tleParameters><EPHEMERIS_TYPE>0</EPHEMERIS_TYPE><CLASSIFICATION_TYPE>U</CLASSIFICATION_TYPE><NORAD_CAT_ID>24873</NORAD_CAT_ID><ELEMENT_SET_NO>999</ELEMENT_SET_NO><REV_AT_EPOCH>47693</REV_AT_EPOCH><BSTAR>.12662E-2</BSTAR><MEAN_MOTION_DOT>.51078E-3</MEAN_MOTION_DOT><MEAN_MOTION_DDOT>0</MEAN_MOTION_DDOT></tleParameters></data></segment></body></omm>
<omm id="CCSDS_OMM_VERS" version="2.0">
<header><CREATION_DATE/><ORIGINATOR/></header><body><segment><metadata><OBJECT_NAME>IRIDIUM 26</OBJECT_NAME><OBJECT_ID>1997-043A</OBJECT_ID><CENTER_NAME>EARTH</CENTER_NAME><REF_FRAME>TEME</REF_FRAME><TIME_SYSTEM>UTC</TIME_SYSTEM><MEAN_ELEMENT_THEORY>SGP4</MEAN_ELEMENT_THEORY></metadata><data><meanElements><EPOCH>2024-06-28T18:04:57.202176</EPOCH><MEAN_MOTION>14.36416149</MEAN_MOTION><ECCENTRICITY>.0002249</ECCENTRICITY><INCLINATION>86.3954</INCLINATION><RA_OF_ASC_NODE>258.9011</RA_OF_ASC_NODE><ARG_OF_PERICENTER>100.1278</ARG_OF_PERICENTER><MEAN_ANOMALY>260.0173</MEAN_ANOMALY></meanElements><tleParameters><EPHEMERIS_TYPE>0</EPHEMERIS_TYPE><CLASSIFICATION_TYPE>U</CLASSIFICATION_TYPE><NORAD_CAT_ID>24903</NORAD_CAT_ID><ELEMENT_SET_NO>999</ELEMENT_SET_NO><REV_AT_EPOCH>40646</REV_AT_EPOCH><BSTAR>.25844E-3</BSTAR><MEAN_MOTION_DOT>.776E-5</MEAN_MOTION_DOT><MEAN_MOTION_DDOT>0</MEAN_MOTION_DDOT></tleParameters></data></segment></body></omm>
<omm id="CCSDS_OMM_VERS" version="2.0">
<header><CREATION_DATE/><ORIGINATOR/></header><body><segment><metadata><OBJECT_NAME>IRIDIUM 22</OBJECT_NAME><OBJECT_ID>1997-043E</OBJECT_ID><CENTER_NAME>EARTH</CENTER_NAME><REF_FRAME>TEME</REF_FRAME><TIME_SYSTEM>UTC</TIME_SYSTEM><MEAN_ELEMENT_THEORY>SGP4</MEAN_ELEMENT_THEORY></metadata><data><meanElements><EPOCH>2024-06-28T17:57:36.512064</EPOCH><MEAN_MOTION>14.35304131</MEAN_MOTION><ECCENTRICITY>.000221</ECCENTRICITY><INCLINATION>86.3957</INCLINATION><RA_OF_ASC_NODE>262.1501</RA_OF_ASC_NODE><ARG_OF_PERICENTER>93.8077</ARG_OF_PERICENTER><MEAN_ANOMALY>266.3372</MEAN_ANOMALY></meanElements><tleParameters><EPHEMERIS_TYPE>0</EPHEMERIS_TYPE><CLASSIFICATION_TYPE>U</CLASSIFICATION_TYPE><NORAD_CAT_ID>24907</NORAD_CAT_ID><ELEMENT_SET_NO>999</ELEMENT_SET_NO><REV_AT_EPOCH>40605</REV_AT_EPOCH><BSTAR>.25587E-3</BSTAR><MEAN_MOTION_DOT>.752E-5</MEAN_MOTION_DOT><MEAN_MOTION_DDOT>0</MEAN_MOTION_DDOT></tleParameters></data></segment></body></omm>
<omm id="CCSDS_OMM_VERS" version="2.0">
<header><CREATION_DATE/><ORIGINATOR/></header><body><segment><metadata><OBJECT_NAME>DUMMY MASS 1</OBJECT_NAME><OBJECT_ID>1997-048A</OBJECT_ID><CENTER_NAME>EARTH</CENTER_NAME><REF_FRAME>TEME</REF_FRAME><TIME_SYSTEM>UTC</TIME_SYSTEM><MEAN_ELEMENT_THEORY>SGP4</MEAN_ELEMENT_THEORY></metadata><data><meanElements><EPOCH>2024-06-28T13:42:56.850048</EPOCH><MEAN_MOTION>14.86260586</MEAN_MOTION><ECCENTRICITY>.0005548</ECCENTRICITY><INCLINATION>86.3346</INCLINATION><RA_OF_ASC_NODE>298.7276</RA_OF_ASC_NODE><ARG_OF_PERICENTER>338.7146</ARG_OF_PERICENTER><MEAN_ANOMALY>21.3846</MEAN_ANOMALY></meanElements><tleParameters><EPHEMERIS_TYPE>0</EPHEMERIS_TYPE><CLASSIFICATION_TYPE>U</CLASSIFICATION_TYPE><NORAD_CAT_ID>24925</NORAD_CAT_ID><ELEMENT_SET_NO>999</ELEMENT_SET_NO><REV_AT_EPOCH>45259</REV_AT_EPOCH><BSTAR>.93723E-4</BSTAR><MEAN_MOTION_DOT>.852E-5</MEAN_MOTION_DOT><MEAN_MOTION_DDOT>0</MEAN_MOTION_DDOT></tleParameters></data></segment></body></omm>
<omm id="CCSDS_OMM_VERS" version="2.0">
<header><CREATION_DATE/><ORIGINATOR/></header><body><segment><metadata><OBJECT_NAME>DUMMY MASS 2</OBJECT_NAME><OBJECT_ID>1997-048B</OBJECT_ID><CENTER_NAME>EARTH</CENTER_NAME><REF_FRAME>TEME</REF_FRAME><TIME_SYSTEM>UTC</TIME_SYSTEM><MEAN_ELEMENT_THEORY>SGP4</MEAN_ELEMENT_THEORY></metadata><data><meanElements><EPOCH>2024-06-28T14:38:21.683616</EPOCH><MEAN_MOTION>14.86018594</MEAN_MOTION><ECCENTRICITY>.0006756</ECCENTRICITY><INCLINATION>86.3347</INCLINATION><RA_OF_ASC_NODE>300.2554</RA_OF_ASC_NODE><ARG_OF_PERICENTER>348.7183</ARG_OF_PERICENTER><MEAN_ANOMALY>11.3888</MEAN_ANOMALY></meanElements><tleParameters><EPHEMERIS_TYPE>0</EPHEMERIS_TYPE><CLASSIFICATION_TYPE>U</CLASSIFICATION_TYPE><NORAD_CAT_ID>24926</NORAD_CAT_ID><ELEMENT_SET_NO>999</ELEMENT_SET_NO><REV_AT_EPOCH>45238</REV_AT_EPOCH><BSTAR>.95568E-4</BSTAR><MEAN_MOTION_DOT>.863E-5</MEAN_MOTION_DOT><MEAN_MOTION_DDOT>0</MEAN_MOTION_DDOT></tleParameters></data></segment></body></omm>
<omm id="CCSDS_OMM_VERS" version="2.0">
<header><CREATION_DATE/><ORIGINATOR/></header><body><segment><metadata><OBJECT_NAME>IRIDIUM 29</OBJECT_NAME><OBJECT_ID>1997-051A</OBJECT_ID><CENTER_NAME>EARTH</CENTER_NAME><REF_FRAME>TEME</REF_FRAME><TIME_SYSTEM>UTC</TIME_SYSTEM><MEAN_ELEMENT_THEORY>SGP4</MEAN_ELEMENT_THEORY></metadata><data><meanElements><EPOCH>2024-06-28T14:35:50.368704</EPOCH><MEAN_MOTION>14.35752632</MEAN_MOTION><ECCENTRICITY>.0002062</ECCENTRICITY><INCLINATION>86.3955</INCLINATION><RA_OF_ASC_NODE>292.1150</RA_OF_ASC_NODE><ARG_OF_PERICENTER>88.2175</ARG_OF_PERICENTER><MEAN_ANOMALY>271.9258</MEAN_ANOMALY></meanElements><tleParameters><EPHEMERIS_TYPE>0</EPHEMERIS_TYPE><CLASSIFICATION_TYPE>U</CLASSIFICATION_TYPE><NORAD_CAT_ID>24944</NORAD_CAT_ID><ELEMENT_SET_NO>999</ELEMENT_SET_NO><REV_AT_EPOCH>40252</REV_AT_EPOCH><BSTAR>.27075E-3</BSTAR><MEAN_MOTION_DOT>.802E-5</MEAN_MOTION_DOT><MEAN_MOTION_DDOT>0</MEAN_MOTION_DDOT></tleParameters></data></segment></body></omm>
<omm id="CCSDS_OMM_VERS" version="2.0">
<header><CREATION_DATE/><ORIGINATOR/></header><body><segment><metadata><OBJECT_NAME>IRIDIUM 33</OBJECT_NAME><OBJECT_ID>1997-051C</OBJECT_ID><CENTER_NAME>EARTH</CENTER_NAME><REF_FRAME>TEME</REF_FRAME><TIME_SYSTEM>UTC</TIME_SYSTEM><MEAN_ELEMENT_THEORY>SGP4</MEAN_ELEMENT_THEORY></metadata><data><meanElements><EPOCH>2024-06-28T20:31:11.479008</EPOCH><MEAN_MOTION>14.34401301</MEAN_MOTION><ECCENTRICITY>.0009238</ECCENTRICITY><INCLINATION>86.3870</INCLINATION><RA_OF_ASC_NODE>291.2621</RA_OF_ASC_NODE><ARG_OF_PERICENTER>140.4082</ARG_OF_PERICENTER><MEAN_ANOMALY>219.7790</MEAN_ANOMALY></meanElements><tleParameters><EPHEMERIS_TYPE>0</EPHEMERIS_TYPE><CLASSIFICATION_TYPE>U</CLASSIFICATION_TYPE><NORAD_CAT_ID>24946</NORAD_CAT_ID><ELEMENT_SET_NO>999</ELEMENT_SET_NO><REV_AT_EPOCH>40209</REV_AT_EPOCH><BSTAR>.21815E-3</BSTAR><MEAN_MOTION_DOT>.633E-5</MEAN_MOTION_DOT><MEAN_MOTION_DDOT>0</MEAN_MOTION_DDOT></tleParameters></data></segment></body></omm>
<omm id="CCSDS_OMM_VERS" version="2.0">
<header><CREATION_DATE/><ORIGINATOR/></header><body><segment><metadata><OBJECT_NAME>IRIDIUM 28</OBJECT_NAME><OBJECT_ID>1997-051E</OBJECT_ID><CENTER_NAME>EARTH</CENTER_NAME><REF_FRAME>TEME</REF_FRAME><TIME_SYSTEM>UTC</TIME_SYSTEM><MEAN_ELEMENT_THEORY>SGP4</MEAN_ELEMENT_THEORY></metadata><data><meanElements><EPOCH>2024-06-28T19:31:26.009472</EPOCH><MEAN_MOTION>14.36707113</MEAN_MOTION><ECCENTRICITY>.000235</ECCENTRICITY><INCLINATION>86.3960</INCLINATION><RA_OF_ASC_NODE>289.7453</RA_OF_ASC_NODE><ARG_OF_PERICENTER>104.0606</ARG_OF_PERICENTER><MEAN_ANOMALY>256.0853</MEAN_ANOMALY></meanElements><tleParameters><EPHEMERIS_TYPE>0</EPHEMERIS_TYPE><CLASSIFICATION_TYPE>U</CLASSIFICATION_TYPE><NORAD_CAT_ID>24948</NORAD_CAT_ID><ELEMENT_SET_NO>999</ELEMENT_SET_NO><REV_AT_EPOCH>40316</REV_AT_EPOCH><BSTAR>.27619E-3</BSTAR><MEAN_MOTION_DOT>.833E-5</MEAN_MOTION_DOT><MEAN_MOTION_DDOT>0</MEAN_MOTION_DDOT></tleParameters></data></segment></body></omm>

</ndm>
